[{"OBJECT_NAME":"STARLINK-4035","OBJECT_ID":"2022-053AL","EPOCH":"2026-03-09T12:48:49.519872","MEAN_MOTION":15.08843322,"ECCENTRICITY":0.00014308,"INCLINATION":53.2171,"RA_OF_ASC_NODE":144.8198,"ARG_OF_PERICENTER":81.5043,"MEAN_ANOMALY":278.6111,"EPHEMERIS_TYPE":0,"CLASSIFICATION_TYPE":"U","NORAD_CAT_ID":52690,"ELEMENT_SET_NO":999,"REV_AT_EPOCH":21109,"BSTAR":5.4925046e-5,"MEAN_MOTION_DOT":5.86e-6,"MEAN_MOTION_DDOT":0},{"OBJECT_NAME":"FENGYUN 1C DEB","OBJECT_ID":"1999-025CUF","EPOCH":"2026-03-09T01:34:38.628768","MEAN_MOTION":15.17132493,"ECCENTRICITY":0.01273829,"INCLINATION":98.8955,"RA_OF_ASC_NODE":293.2327,"ARG_OF_PERICENTER":89.1897,"MEAN_ANOMALY":272.3925,"EPHEMERIS_TYPE":0,"CLASSIFICATION_TYPE":"U","NORAD_CAT_ID":32185,"ELEMENT_SET_NO":999,"REV_AT_EPOCH":96318,"BSTAR":0.0036969643,"MEAN_MOTION_DOT":0.00091378,"MEAN_MOTION_DDOT":0}]
